[{"OBJECT_NAME":"STARLINK-32192","OBJECT_ID":"2024-133R","EPOCH":"2026-03-09T22:29:05.688960","MEAN_MOTION":15.3018994,"ECCENTRICITY":0.00012225,"INCLINATION":53.1596,"RA_OF_ASC_NODE":295.5274,"ARG_OF_PERICENTER":95.0078,"MEAN_ANOMALY":265.1062,"EPHEMERIS_TYPE":0,"CLASSIFICATION_TYPE":"U","NORAD_CAT_ID":60316,"ELEMENT_SET_NO":999,"REV_AT_EPOCH":9177,"BSTAR":2.3043628e-5,"MEAN_MOTION_DOT":3.23e-6,"MEAN_MOTION_DDOT":0},{"OBJECT_NAME":"HERMES-3","OBJECT_ID":"2025-052BR","EPOCH":"2026-03-09T22:30:01.073952","MEAN_MOTION":15.30039786,"ECCENTRICITY":0.00079928,"INCLINATION":97.3987,"RA_OF_ASC_NODE":324.6131,"ARG_OF_PERICENTER":112.9583,"MEAN_ANOMALY":247.2502,"EPHEMERIS_TYPE":0,"CLASSIFICATION_TYPE":"U","NORAD_CAT_ID":63835,"ELEMENT_SET_NO":999,"REV_AT_EPOCH":5486,"BSTAR":0.0006995793,"MEAN_MOTION_DOT":0.00020316,"MEAN_MOTION_DDOT":0}]
